{
    "links": {
        "self": "http://www.neowsapp.com/rest/v1/neo/3468534?api_key=iIulBulltgU6a56xZRHN4H3l9WmuAYTsLGpBGhQ2"
    },
    "id": "3468534",
    "neo_reference_id": "3468534",
    "name": "(2009 ST104)",
    "designation": "2009 ST104",
    "nasa_jpl_url": "http://ssd.jpl.nasa.gov/sbdb.cgi?sstr=3468534",
    "absolute_magnitude_h": 25.3,
    "estimated_diameter": {
        "kilometers": {
            "estimated_diameter_min": 0.0231502122,
            "estimated_diameter_max": 0.0517654482
        },
        "meters": {
            "estimated_diameter_min": 23.150212221,
            "estimated_diameter_max": 51.7654482198
        },
        "miles": {
            "estimated_diameter_min": 0.0143848705,
            "estimated_diameter_max": 0.0321655483
        },
        "feet": {
            "estimated_diameter_min": 75.9521422633,
            "estimated_diameter_max": 169.8341531374
        }
    },
    "is_potentially_hazardous_asteroid": false,
    "close_approach_data": [
        {
            "close_approach_date": "2009-10-07",
            "close_approach_date_full": "2009-Oct-07 14:00",
            "epoch_date_close_approach": 1254924000000,
            "relative_velocity": {
                "kilometers_per_second": "13.5578833418",
                "kilometers_per_hour": "48808.3800304958",
                "miles_per_hour": "30327.6292472823"
            },
            "miss_distance": {
                "astronomical": "0.0425751405",
                "lunar": "16.5617296545",
                "kilometers": "6369150.333750735",
                "miles": "3957606.500740743"
            },
            "orbiting_body": "Earth"
        }
    ],
    "orbital_data": {
        "orbit_id": "7",
        "orbit_determination_date": "2017-04-06 08:59:46",
        "first_observation_date": "2009-09-26",
        "last_observation_date": "2009-09-30",
        "data_arc_in_days": 4,
        "observations_used": 20,
        "orbit_uncertainty": "9",
        "minimum_orbit_intersection": ".0423145",
        "jupiter_tisserand_invariant": "3.668",
        "epoch_osculation": "2455101.5",
        "eccentricity": ".5682289260559594",
        "semi_major_axis": "1.947249019744912",
        "inclination": "8.38660952130831",
        "ascending_node_longitude": "179.2492609432821",
        "orbital_period": "992.5003479692733",
        "perihelion_distance": ".840765800491741",
        "perihelion_argument": "253.7557106499464",
        "aphelion_distance": "3.053732238998083",
        "perihelion_time": "2455153.599427471352",
        "mean_anomaly": "341.1024812957875",
        "mean_motion": ".3627202758533896",
        "equinox": "J2000",
        "orbit_class": {
            "orbit_class_type": "APO",
            "orbit_class_description": "Near-Earth asteroid orbits which cross the Earth’s orbit similar to that of 1862 Apollo",
            "orbit_class_range": "a (semi-major axis) > 1.0 AU; q (perihelion) < 1.017 AU"
        }
    },
    "is_sentry_object": false
}